NORAD_CAT_ID,OBJECT_NAME,OBJECT_TYPE,EPOCH,MEAN_MOTION,ECCENTRICITY,INCLINATION,RA_OF_ASC_NODE,ARG_OF_PERICENTER,MEAN_ANOMALY,BSTAR,MEAN_MOTION_DOT,MEAN_MOTION_DDOT,TLE_LINE0,TLE_LINE1,TLE_LINE2,SEMIMAJOR_AXIS,PERIOD,APOGEE,PERIGEE,DECAYED
49178.0,STARLINK-3086,PAYLOAD,2022-02-01 22:00:00,14.98328573,0.0003827,69.9972,108.3513,283.3759,17.1277,-0.0016297,-0.00019485,0.0,0 STARLINK-3086,1 49178U 21082BA  22032.91667824 -.00019485  00000-0 -16297-2 0  9990,2 49178  69.9972 108.3513 0003827 283.3759  17.1277 14.98328573 22921,6950.196999999999,96.107,574.722,569.4019999999998,0.0
49178.0,STARLINK-3086,PAYLOAD,2022-02-02 14:00:01,14.98313236,0.0003948,69.9973,106.6699,285.1089,10.3544,0.0028938,0.00034593,0.0,0 STARLINK-3086,1 49178U 21082BA  22033.58334491  .00034593  00000-0  28938-2 0  9995,2 49178  69.9973 106.6699 0003948 285.1089  10.3544 14.98313236 23022,6950.245,96.108,574.854,569.366,0.0
49178.0,STARLINK-3086,PAYLOAD,2022-02-02 22:00:00,14.98335611,0.0003941,69.9969,105.8291,282.4662,10.4824,-0.001141,-0.00013684,0.0,0 STARLINK-3086,1 49178U 21082BA  22033.91667824 -.00013684  00000-0 -11410-2 0  9998,2 49178  69.9969 105.8291 0003941 282.4662  10.4824 14.98335611  3588,6950.176,96.107,574.78,569.3009999999998,0.0
49178.0,STARLINK-3086,PAYLOAD,2022-02-03 14:00:01,14.983379,0.0003992,69.9969,104.1477,284.8739,3.0672,-0.00026655,-3.273e-05,0.0,0 STARLINK-3086,1 49178U 21082BA  22034.58334491 -.00003273  00000-0 -26655-3 0  9994,2 49178  69.9969 104.1477 0003992 284.8739   3.0672 14.98337900 23172,6950.168000000002,96.106,574.808,569.259,0.0
49178.0,STARLINK-3086,PAYLOAD,2022-02-03 22:00:01,14.98320531,0.0003912,69.9967,103.3069,282.4395,3.0654,-0.00038953,-4.737e-05,0.0,0 STARLINK-3086,1 49178U 21082BA  22034.91668981 -.00004737  00000-0 -38953-3 0  9995,2 49178  69.9967 103.3069 0003912 282.4395   3.0654 14.98320531  3576,6950.222,96.108,574.806,569.368,0.0
49178.0,STARLINK-3086,PAYLOAD,2022-02-04 14:00:01,14.98324181,0.0003946,69.9983,101.6256,285.4290000000001,355.0545,0.0027091,0.00032378,0.0,0 STARLINK-3086,1 49178U 21082BA  22035.58335648  .00032378  00000-0  27091-2 0  9990,2 49178  69.9983 101.6256 0003946 285.4290 355.0545 14.98324181 23326,6950.2109999999975,96.107,574.818,569.3330000000002,0.0
49178.0,STARLINK-3086,PAYLOAD,2022-02-04 22:00:00,14.98324212,0.0003839,69.9989,100.785,282.9231,354.994,-0.0014298,-0.0001710999999999,0.0,0 STARLINK-3086,1 49178U 21082BA  22035.91667824 -.00017110  00000-0 -14298-2 0  9995,2 49178  69.9989 100.7850 0003839 282.9231 354.9940 14.98324212  3566,6950.2109999999975,96.107,574.744,569.408,0.0
49178.0,STARLINK-3086,PAYLOAD,2022-02-05 06:00:00,14.9834627,0.0003843,69.9991,99.9446,280.9518,354.4282,-0.0022167,-0.00026456,0.0,0 STARLINK-3086,1 49178U 21082BA  22036.25001157 -.00026456  00000-0 -22167-2 0  9991,2 49178  69.9991  99.9446 0003843 280.9518 354.4282 14.98346270 23429,6950.143,96.106,574.679,569.337,0.0
49178.0,STARLINK-3086,PAYLOAD,2022-02-05 14:00:01,14.98309869,0.0003859,69.9989,99.104,286.4088,346.4673,0.0038284,0.00045865,0.0,0 STARLINK-3086,1 49178U 21082BA  22036.58334491  .00045865  00000-0  38284-2 0  9997,2 49178  69.9989  99.1040 0003859 286.4088 346.4673 14.98309869  3570,6950.255,96.108,574.802,569.438,0.0
49178.0,STARLINK-3086,PAYLOAD,2022-02-06 06:00:00,14.98334009,0.0003712,69.9991,97.4229,281.9283,345.892,-0.0024567,-0.00029289,0.0,0 STARLINK-3086,1 49178U 21082BA  22037.25001157 -.00029289  00000-0 -24567-2 0  9995,2 49178  69.9991  97.4229 0003712 281.9283 345.8920 14.98334009 23572,6950.18,96.107,574.625,569.466,0.0
49178.0,STARLINK-3086,PAYLOAD,2022-02-06 14:00:01,14.98297804,0.0003767,69.9989,96.5823,287.3992,337.9635,0.0036233,0.00043374,0.0,0 STARLINK-3086,1 49178U 21082BA  22037.58335648  .00043374  00000-0  36233-2 0  9998,2 49178  69.9989  96.5823 0003767 287.3992 337.9635 14.98297804  3570,6950.292,96.109,574.776,569.539,0.0
49178.0,STARLINK-3086,PAYLOAD,2022-02-06 22:00:00,14.98303875,0.0003686,69.9988,95.7417,283.6276,339.1357,0.0014414,0.00017137,0.0,0 STARLINK-3086,1 49178U 21082BA  22037.91667824  .00017137  00000-0  14414-2 0  9994,2 49178  69.9988  95.7417 0003686 283.6276 339.1357 14.98303875  3574,6950.274,96.109,574.701,569.577,0.0
49178.0,STARLINK-3086,PAYLOAD,2022-02-07 06:00:00,14.98344107,0.0003722,69.9991,94.9012,282.0124,338.2018,-0.0025455,-0.00030347,0.0,0 STARLINK-3086,1 49178U 21082BA  22038.25001157 -.00030347  00000-0 -25455-2 0  9990,2 49178  69.9991  94.9012 0003722 282.0124 338.2018 14.98344107 23722,6950.149,96.106,574.601,569.427,0.0
49178.0,STARLINK-3086,PAYLOAD,2022-02-07 14:00:01,14.98307629,0.000381,69.9991,94.0606,286.9829,330.7203,0.0033394,0.00039959,0.0,0 STARLINK-3086,1 49178U 21082BA  22038.58334491  .00039959  00000-0  33394-2 0  9993,2 49178  69.9991  94.0606 0003810 286.9829 330.7203 14.98307629  3577,6950.262,96.108,574.775,569.479,0.0
49178.0,STARLINK-3086,PAYLOAD,2022-02-07 22:00:00,14.98309897,0.0003749,69.9989,93.22,282.8554,332.3272,0.0020174,0.0002405,0.0,0 STARLINK-3086,1 49178U 21082BA  22038.91667824  .00024050  00000-0  20174-2 0  9997,2 49178  69.9989  93.2200 0003749 282.8554 332.3272 14.98309897 23829,6950.255,96.108,574.726,569.514,0.0
49178.0,STARLINK-3086,PAYLOAD,2022-02-08 14:00:01,14.98317324,0.0003893,69.9992,91.5389,286.1232,324.0233,0.0032695,0.00039126,0.0,0 STARLINK-3086,1 49178U 21082BA  22039.58334491  .00039126  00000-0  32695-2 0  9993,2 49178  69.9992  91.5389 0003893 286.1232 324.0233 14.98317324  3582,6950.232,96.108,574.803,569.391,0.0
49178.0,STARLINK-3086,PAYLOAD,2022-02-08 22:00:01,14.9831605,0.0003847,69.9991,90.6982,282.0729,325.6284,0.0027239,0.00032549,0.0,0 STARLINK-3086,1 49178U 21082BA  22039.91668981  .00032549  00000-0  27239-2 0  9994,2 49178  69.9991  90.6982 0003847 282.0729 325.6284 14.98316050 23978,6950.236,96.108,574.775,569.427,0.0
49178.0,STARLINK-3086,PAYLOAD,2022-02-09 12:55:14,14.98342977,0.00038,69.9989,89.1306,282.3915,77.6819,0.00047469,5.578e-05,0.0,0 STARLINK-3086,1 49178U 21082BA  22040.53836663  .00005578  00000-0  47469-3 0  9998,2 49178  69.9989  89.1306 0003800 282.3915  77.6819 14.98342977 24074,6950.153,96.106,574.659,569.377,0.0
49178.0,STARLINK-3086,PAYLOAD,2022-02-09 14:00:01,14.98339901,0.0003927,69.9994,89.0172,285.7885,316.8371,-0.00037994,-4.625e-05,0.0,0 STARLINK-3086,1 49178U 21082BA  22040.58334491 -.00004625  00000-0 -37994-3 0  9991,2 49178  69.9994  89.0172 0003927 285.7885 316.8371 14.98339901 24077,6950.1619999999975,96.106,574.757,569.298,0.0
49178.0,STARLINK-3086,PAYLOAD,2022-02-10 12:57:16,14.98328391,0.000373,69.9973,86.6055,281.22,78.854,9.3482e-05,1.022e-05,0.0,0 STARLINK-3086,1 49178U 21082BA  22041.53977147  .00001022  00000-0  93482-4 0  9999,2 49178  69.9973  86.6055 0003730 281.2200  78.8540 14.98328391 24222,6950.198,96.107,574.655,569.47,0.0
49178.0,STARLINK-3086,PAYLOAD,2022-02-10 14:00:01,14.98310129,0.0003899,69.9995,86.4958,286.2488,308.8845,0.0029854,0.00035694,0.0,0 STARLINK-3086,1 49178U 21082BA  22041.58335648  .00035694  00000-0  29854-2 0  9990,2 49178  69.9995  86.4958 0003899 286.2488 308.8845 14.98310129 24229,6950.254,96.108,574.8290000000002,569.409,0.0
49178.0,STARLINK-3086,PAYLOAD,2022-02-10 22:00:00,14.98301438,0.0003827,69.9996,85.6554,282.2107,310.3446,0.0038846,0.00046534,0.0,0 STARLINK-3086,1 49178U 21082BA  22041.91667824  .00046534  00000-0  38846-2 0  9997,2 49178  69.9996  85.6554 0003827 282.2107 310.3446 14.98301438  3560,6950.281,96.109,574.806,569.486,0.0
49178.0,STARLINK-3086,PAYLOAD,2022-02-11 04:58:36,14.98337308,0.0003802,69.9973,84.9218,282.7114,77.362,6.4461e-05,6.76e-06,0.0,0 STARLINK-3086,1 49178U 21082BA  22042.20736490  .00000676  00000-0  64461-4 0  9997,2 49178  69.9973  84.9218 0003802 282.7114  77.3620 14.98337308 24326,6950.17,96.107,574.678,569.393,0.0
49178.0,STARLINK-3086,PAYLOAD,2022-02-11 12:59:16,14.98339998,0.0003825,69.9973,84.0801,282.445,77.6281,9.7199e-05,1.067e-05,0.0,0 STARLINK-3086,1 49178U 21082BA  22042.54116099  .00001067  00000-0  97199-4 0  9990,2 49178  69.9973  84.0801 0003825 282.4450  77.6281 14.98339998 24378,6950.1619999999975,96.106,574.685,569.369,0.0
49178.0,STARLINK-3086,PAYLOAD,2022-02-11 22:00:01,14.98321715,0.0003769,69.9994,83.134,282.5821,302.5192,0.0034956,0.00041859,0.0,0 STARLINK-3086,1 49178U 21082BA  22042.91668981  .00041859  00000-0  34956-2 0  9996,2 49178  69.9994  83.1340 0003769 282.5821 302.5192 14.98321715  3588,6950.219,96.108,574.703,569.464,0.0
49178.0,STARLINK-3086,PAYLOAD,2022-02-12 05:00:36,14.98340647,0.0003816,69.9971,82.3965,282.9426,77.1307,0.00026245,3.041e-05,0.0,0 STARLINK-3086,1 49178U 21082BA  22043.20875498  .00003041  00000-0  26245-3 0  9996,2 49178  69.9971  82.3965 0003816 282.9426  77.1307 14.98340647 24474,6950.16,96.106,574.677,569.373,0.0
49178.0,STARLINK-3086,PAYLOAD,2022-02-12 13:01:17,14.98335074,0.0003861,69.9985,81.5549,283.1063,76.9665,0.00015793,1.792e-05,0.0,0 STARLINK-3086,1 49178U 21082BA  22043.54256005  .00001792  00000-0  15793-3 0  9997,2 49178  69.9985  81.5549 0003861 283.1063  76.9665 14.98335074 24526,6950.177,96.107,574.726,569.359,0.0
49178.0,STARLINK-3086,PAYLOAD,2022-02-12 22:00:00,14.98300685,0.0003617,69.9992,80.6124,283.1581,294.3569,0.0016635,0.00019797,0.0,0 STARLINK-3086,1 49178U 21082BA  22043.91667824  .00019797  00000-0  16635-2 0  9992,2 49178  69.9992  80.6124 0003617 283.1581 294.3569 14.98300685  3589,6950.284000000002,96.109,574.6619999999998,569.635,0.0
49178.0,STARLINK-3086,PAYLOAD,2022-02-13 06:00:00,14.98329968,0.0003627,69.9995,79.7718,283.7159,291.2506,-0.0030133,-0.00035866,0.0,0 STARLINK-3086,1 49178U 21082BA  22044.25001157 -.00035866  00000-0 -30133-2 0  9997,2 49178  69.9995  79.7718 0003627 283.7159 291.2506 14.98329968 24628,6950.193,96.107,574.5790000000002,569.5369999999998,0.0
